BEIDOU 3 (C01)          
1 36287U 10001A   22061.53979760 -.00000301  00000+0  00000+0 0  9998
2 36287   1.8980  47.7595 0002462  18.2795  68.9566  1.00269643 44444
BEIDOU 5 (C06)          
1 36828U 10036A   22061.32109872 -.00000173  00000+0  00000+0 0  9990
2 36828  54.1922 177.2104 0027581 181.5495  25.5500  1.00277419 42509
BEIDOU 6 (C04)          
1 37210U 10057A   22061.64940862 -.00000132  00000+0  00000+0 0  9991
2 37210   0.9759  54.1345 0003865 152.0396 348.0461  1.00270976 41569
BEIDOU 7 (C07)          
1 37256U 10068A   22061.80505609 -.00000175  00000+0  00000+0 0  9994
2 37256  50.3998 290.9215 0017666 185.6253  82.1357  1.00283673 41071
BEIDOU 8 (C08)          
1 37384U 11013A   22061.65948003 -.00000161  00000+0  00000+0 0  9994
2 37384  60.1431  55.3125 0020008 196.0799 254.8714  1.00284073 39956
BEIDOU 9 (C09)          
1 37763U 11038A   22061.52423376 -.00000113  00000+0  00000+0 0  9996
2 37763  54.4761 179.6875 0089573 225.6305  36.8622  1.00257085 38920
BEIDOU 10 (C10)         
1 37948U 11073A   22061.87038302 -.00000129  00000+0  00000+0 0  9996
2 37948  50.5138 290.5540 0077009 218.4035  60.9350  1.00276942 37684
BEIDOU 11 (C05)         
1 38091U 12008A   22061.87074863  .00000040  00000+0  00000+0 0  9998
2 38091   1.3309  64.2428 0013706 315.8900 152.4064  1.00272044 36762
BEIDOU 12 (C11)         
1 38250U 12018A   22061.56030071 -.00000110  00000+0  00000+0 0  9994
2 38250  56.7208 357.0903 0023251 257.4267 286.0080  1.86234453 67093
BEIDOU 13 (C12)         
1 38251U 12018B   22061.40957316 -.00000110  00000+0  00000+0 0  9998
2 38251  56.6399 356.4266 0013777 264.1617 222.4705  1.86233967 67092
BEIDOU 15 (C14)         
1 38775U 12050B   22060.84630139  .00000011  00000+0  00000+0 0  9992
2 38775  55.3371 115.3074 0013822 318.5770 347.1131  1.86231289 64453
BEIDOU 16 (C02)         
1 38953U 12059A   22061.52854647 -.00000195  00000+0  00000+0 0  9991
2 38953   1.7248  84.6215 0012827 285.4292  64.4051  1.00275855 34189
BEIDOU 17 (C31)         
1 40549U 15019A   22061.87336527 -.00000162  00000+0  00000+0 0  9998
2 40549  52.0659 313.9937 0035405 189.8955  66.5409  1.00264833 25361
BEIDOU 18 (C57)         
1 40748U 15037A   22061.65902191 -.00000110  00000+0  00000+0 0  9994
2 40748  55.8960 355.3492 0005321 353.0422 210.4350  1.86233343 44926
BEIDOU 19 (C58)         
1 40749U 15037B   22061.46218425 -.00000110  00000+0  00000+0 0  9994
2 40749  55.8982 355.3455 0006969 324.2815 242.1851  1.86232243 44910
BEIDOU 20 (C18)         
1 40938U 15053A   22061.43534050 -.00000100  00000+0  00000+0 0  9993
2 40938  51.6643 277.0984 0043334 192.9182 303.0455  1.00270369 23639
BEIDOU IGSO-6 (C13)     
1 41434U 16021A   22061.32831398 -.00000128  00000+0  00000+0 0  9994
2 41434  57.9424  53.9395 0043663 219.7021  98.9603  1.00262355 21751
BEIDOU-2 G7 (C03)       
1 41586U 16037A   22061.53386677 -.00000374  00000+0  00000+0 0  9990
2 41586   1.7400  68.0431 0008905   0.1865  34.7902  1.00270380 21078
BEIDOU-3 M1 (C19)       
1 43001U 17069A   22061.72412813  .00000013  00000+0  00000+0 0  9992
2 43001  55.4916 115.2636 0010768 285.6264  44.7821  1.86231617 29405
BEIDOU-3 M2 (C20)       
1 43002U 17069B   22061.24996670  .00000012  00000+0  00000+0 0  9997
2 43002  55.4903 115.3173 0008727 305.0770 110.5857  1.86231395 29392
BEIDOU-3 M3 (C27)       
1 43107U 18003A   22061.33547444 -.00000111  00000+0  00000+0 0  9994
2 43107  55.3442 356.3254 0004803  36.3456 242.6664  1.86232456 28153
BEIDOU-3 M4 (C28)       
1 43108U 18003B   22061.80650251 -.00000112  00000+0  00000+0 0  9999
2 43108  55.3374 356.2993 0003397 271.2414   8.0557  1.86230867 28168
BEIDOU-3 M5 (C21)       
1 43207U 18018A   22060.76216156  .00000011  00000+0  00000+0 0  9998
2 43207  55.4491 115.4139 0006016 322.6071  37.4316  1.86231361 27536
BEIDOU-3 M6 (C22)       
1 43208U 18018B   22060.82881317  .00000011  00000+0  00000+0 0  9993
2 43208  55.4489 115.4164 0009119 294.6156  65.3699  1.86231479 27535
BEIDOU-3 M7 (C29)       
1 43245U 18029A   22061.33094277 -.00000110  00000+0  00000+0 0  9995
2 43245  55.2631 354.1014 0001434 328.4576 217.8685  1.86232509 26693
BEIDOU-3 M8 (C30)       
1 43246U 18029B   22060.78388598 -.00000110  00000+0  10000-3 0  9991
2 43246  55.2600 354.1507 0005233 348.7247 237.2724  1.86232748 26671
BEIDOU IGSO-7 (C16)     
1 43539U 18057A   22061.74876505 -.00000170  00000+0  00000+0 0  9995
2 43539  55.0740 176.6514 0045577 223.8104 139.6192  1.00290064 13440
BEIDOU-3 M9 (C23)       
1 43581U 18062A   22060.97556963  .00000014  00000+0  00000+0 0  9991
2 43581  54.3106 235.7638 0002019 326.0919 239.1292  1.86231812 24420
BEIDOU-3 M10 (C24)      
1 43582U 18062B   22061.59854927  .00000009  00000+0  00000+0 0  9996
2 43582  54.3101 235.7322 0006687  24.2322 330.3629  1.86232140 24430
BEIDOU-3 M11 (C25)      
1 43602U 18067A   22061.35148410  .00000010  00000+0  00000+0 0  9993
2 43602  54.3909 234.3463 0007824  15.1294 215.4059  1.86231658 23927
BEIDOU-3 M12 (C26)      
1 43603U 18067B   22061.67291234  .00000008  00000+0  00000+0 0  9999
2 43603  54.3875 234.3018 0004808  12.0903 344.3428  1.86231526 23946
BEIDOU-3 M13 (C32)      
1 43622U 18072A   22061.04965188  .00000012  00000+0  00000+0 0  9998
2 43622  55.4159 114.9637 0007505 279.2393  48.9293  1.86231466 23446
BEIDOU-3 M14 (C33)      
1 43623U 18072B   22060.90705785  .00000012  00000+0  00000+0 0  9998
2 43623  55.4175 114.9606 0005120 299.7162  23.0853  1.86231486 23441
BEIDOU-3 M15 (C34)      
1 43647U 18078A   22061.68956836 -.00000111  00000+0  10000-3 0  9997
2 43647  55.1567 354.2573 0007598 355.7514  27.1044  1.86232717 22978
BEIDOU-3 M16 (C35)      
1 43648U 18078B   22061.66629427 -.00000111  00000+0  00000+0 0  9994
2 43648  55.1538 354.2647 0005380   2.8521 272.3881  1.86232172 22983
BEIDOU-3 G1 (C59)       
1 43683U 18085A   22061.57684733 -.00000300  00000+0  00000+0 0  9992
2 43683   0.8383 185.3327 0001550 344.6949 337.9961  1.00269644 12336
BEIDOU-3 M17 (C36)      
1 43706U 18093A   22061.40778066  .00000010  00000+0  00000+0 0  9999
2 43706  54.3924 235.6255 0007161 282.0975  77.7878  1.86231857 22329
BEIDOU-3 M18 (C37)      
1 43707U 18093B   22061.59079388  .00000009  00000+0  00000+0 0  9999
2 43707  54.3926 235.6105 0006742 319.8886 253.8179  1.86232095 22337
BEIDOU-3 IGSO-1 (C38)   
1 44204U 19023A   22061.75681317 -.00000196  00000+0  00000+0 0  9993
2 44204  56.4079  54.1157 0020798 205.5025 291.4875  1.00289841 10645
BEIDOU-2 G8             
1 44231U 19027A   22061.63698368 -.00000267  00000+0  00000+0 0  9997
2 44231   0.6120  70.1708 0004974 143.1980 320.7621  1.00275226 10353
BEIDOU-3 IGSO-2 (C39)   
1 44337U 19035A   22061.66309251 -.00000177  00000+0  00000+0 0  9996
2 44337  55.1140 172.6761 0022476 189.6231 155.2150  1.00285888  9974
BEIDOU-3 M23 (C45)      
1 44542U 19061A   22061.34320237  .00000011  00000+0  00000+0 0  9991
2 44542  54.6186 235.7489 0008172 353.7178   6.2382  1.86231240 16590
BEIDOU-3 M24 (C46)      
1 44543U 19061B   22061.51735035  .00000010  00000+0  00000+0 0  9996
2 44543  54.6166 235.7132 0005282 352.8110  35.0575  1.86231399 16598
BEIDOU-3 IGSO-3         
1 44709U 19073A   22061.49722817 -.00000153  00000+0  00000+0 0  9993
2 44709  57.4323 297.4936 0020030 173.7816 346.5626  1.00288141  8733
BEIDOU-3 M21            
1 44793U 19078A   22061.76889762 -.00000111  00000+0  10000-3 0  9993
2 44793  55.0064 354.2892 0007478   2.1504  27.9610  1.86232210 15466
BEIDOU-3 M22            
1 44794U 19078B   22060.52126964 -.00000110  00000+0  00000+0 0  9999
2 44794  54.9810 354.3255 0005400 357.3296 187.7626  1.86232697 15432
BEIDOU-3 M19            
1 44864U 19090A   22060.97526955  .00000011  00000+0  00000+0 0  9993
2 44864  55.3504 115.1826 0017798 267.4129  56.5826  1.86231803 15029
BEIDOU-3 M20            
1 44865U 19090B   22061.44381097  .00000012  00000+0  00000+0 0  9994
2 44865  55.3532 115.1981 0016019 280.6144  87.4008  1.86231726 15010
BEIDOU-3 G2             
1 45344U 20017A   22061.52776150 -.00000160  00000+0  00000+0 0  9990
2 45344   2.1463 346.9155 0002241  71.1376  12.2073  1.00272925  7544
BEIDOU-3 G3             
1 45807U 20040A   22061.61587546 -.00000375  00000+0  00000+0 0  9997
2 45807   1.6869 300.7062 0007839 348.8616 203.0418  1.00271135  6360
